STARLINK-1450
1 25667C 20035L   21325.14270733  .00006392  00000-0  42834-3 0  3255
2 25667  53.0533 272.5909 0001834  67.5139   8.1015 15.06386737    12
